[{"OBJECT_NAME":"RASSVET-3 1","OBJECT_ID":"2026-061A","EPOCH":"2026-04-21T19:59:04.002144","MEAN_MOTION":15.87452823,"ECCENTRICITY":0.0019305,"INCLINATION":82.2954,"RA_OF_ASC_NODE":75.7781,"ARG_OF_PERICENTER":324.6542,"MEAN_ANOMALY":35.3447,"EPHEMERIS_TYPE":0,"CLASSIFICATION_TYPE":"U","NORAD_CAT_ID":68360,"ELEMENT_SET_NO":999,"REV_AT_EPOCH":462,"BSTAR":0.00033724,"MEAN_MOTION_DOT":0.00090074,"MEAN_MOTION_DDOT":1.6462e-6},{"OBJECT_NAME":"RASSVET-3 2","OBJECT_ID":"2026-061B","EPOCH":"2026-04-21T20:45:33.788160","MEAN_MOTION":15.91273042,"ECCENTRICITY":0.0020678,"INCLINATION":82.2972,"RA_OF_ASC_NODE":75.666,"ARG_OF_PERICENTER":322.5958,"MEAN_ANOMALY":37.3874,"EPHEMERIS_TYPE":0,"CLASSIFICATION_TYPE":"U","NORAD_CAT_ID":68361,"ELEMENT_SET_NO":999,"REV_AT_EPOCH":463,"BSTAR":0.00036136,"MEAN_MOTION_DOT":0.00117177,"MEAN_MOTION_DDOT":3.7681e-6},{"OBJECT_NAME":"RASSVET-3 3","OBJECT_ID":"2026-061C","EPOCH":"2026-04-21T20:43:59.365056","MEAN_MOTION":15.91917201,"ECCENTRICITY":0.0019659,"INCLINATION":82.2973,"RA_OF_ASC_NODE":75.6639,"ARG_OF_PERICENTER":322.1083,"MEAN_ANOMALY":37.8805,"EPHEMERIS_TYPE":0,"CLASSIFICATION_TYPE":"U","NORAD_CAT_ID":68362,"ELEMENT_SET_NO":999,"REV_AT_EPOCH":463,"BSTAR":0.00035214,"MEAN_MOTION_DOT":0.00117825,"MEAN_MOTION_DDOT":3.8586e-6},{"OBJECT_NAME":"RASSVET-3 4","OBJECT_ID":"2026-061D","EPOCH":"2026-04-21T14:42:46.675008","MEAN_MOTION":15.92177491,"ECCENTRICITY":0.0020413,"INCLINATION":82.298,"RA_OF_ASC_NODE":75.954,"ARG_OF_PERICENTER":322.2389,"MEAN_ANOMALY":37.745,"EPHEMERIS_TYPE":0,"CLASSIFICATION_TYPE":"U","NORAD_CAT_ID":68363,"ELEMENT_SET_NO":999,"REV_AT_EPOCH":459,"BSTAR":0.00039698,"MEAN_MOTION_DOT":0.00134775,"MEAN_MOTION_DDOT":5.4321e-6},{"OBJECT_NAME":"RASSVET-3 5","OBJECT_ID":"2026-061E","EPOCH":"2026-04-21T10:10:14.470176","MEAN_MOTION":15.9047493,"ECCENTRICITY":0.0019741,"INCLINATION":82.297,"RA_OF_ASC_NODE":76.1652,"ARG_OF_PERICENTER":323.1056,"MEAN_ANOMALY":36.8856,"EPHEMERIS_TYPE":0,"CLASSIFICATION_TYPE":"U","NORAD_CAT_ID":68364,"ELEMENT_SET_NO":999,"REV_AT_EPOCH":456,"BSTAR":-0.0059691,"MEAN_MOTION_DOT":-0.01832112,"MEAN_MOTION_DDOT":0.00091004},{"OBJECT_NAME":"RASSVET-3 6","OBJECT_ID":"2026-061F","EPOCH":"2026-04-21T14:39:07.415136","MEAN_MOTION":15.91235861,"ECCENTRICITY":0.0020186,"INCLINATION":82.2978,"RA_OF_ASC_NODE":75.9473,"ARG_OF_PERICENTER":324.7092,"MEAN_ANOMALY":35.2842,"EPHEMERIS_TYPE":0,"CLASSIFICATION_TYPE":"U","NORAD_CAT_ID":68365,"ELEMENT_SET_NO":999,"REV_AT_EPOCH":459,"BSTAR":0.00031632,"MEAN_MOTION_DOT":0.00102326,"MEAN_MOTION_DDOT":2.5982e-6},{"OBJECT_NAME":"RASSVET-3 7","OBJECT_ID":"2026-061G","EPOCH":"2026-04-21T05:37:44.344128","MEAN_MOTION":15.91502763,"ECCENTRICITY":0.00205144,"INCLINATION":82.297,"RA_OF_ASC_NODE":76.3776,"ARG_OF_PERICENTER":324.6029,"MEAN_ANOMALY":35.388,"EPHEMERIS_TYPE":0,"CLASSIFICATION_TYPE":"U","NORAD_CAT_ID":68366,"ELEMENT_SET_NO":999,"REV_AT_EPOCH":453,"BSTAR":0.00036828076,"MEAN_MOTION_DOT":0.00120797,"MEAN_MOTION_DDOT":4.090531e-6},{"OBJECT_NAME":"RASSVET-3 8","OBJECT_ID":"2026-061H","EPOCH":"2026-04-21T20:42:43.807392","MEAN_MOTION":15.92278008,"ECCENTRICITY":0.0019914,"INCLINATION":82.2974,"RA_OF_ASC_NODE":75.6631,"ARG_OF_PERICENTER":320.0153,"MEAN_ANOMALY":39.9652,"EPHEMERIS_TYPE":0,"CLASSIFICATION_TYPE":"U","NORAD_CAT_ID":68367,"ELEMENT_SET_NO":999,"REV_AT_EPOCH":463,"BSTAR":0.0003596,"MEAN_MOTION_DOT":0.00122642,"MEAN_MOTION_DDOT":4.301e-6},{"OBJECT_NAME":"RASSVET-3 9","OBJECT_ID":"2026-061J","EPOCH":"2026-04-21T19:11:55.952160","MEAN_MOTION":15.86651375,"ECCENTRICITY":0.0015972,"INCLINATION":82.2964,"RA_OF_ASC_NODE":75.7311,"ARG_OF_PERICENTER":326.0935,"MEAN_ANOMALY":33.9312,"EPHEMERIS_TYPE":0,"CLASSIFICATION_TYPE":"U","NORAD_CAT_ID":68368,"ELEMENT_SET_NO":999,"REV_AT_EPOCH":462,"BSTAR":0.0003451,"MEAN_MOTION_DOT":0.00088194,"MEAN_MOTION_DDOT":1.5087e-6},{"OBJECT_NAME":"RASSVET-3 10","OBJECT_ID":"2026-061K","EPOCH":"2026-04-21T20:42:45.080064","MEAN_MOTION":15.92179546,"ECCENTRICITY":0.0019872,"INCLINATION":82.2971,"RA_OF_ASC_NODE":75.6635,"ARG_OF_PERICENTER":320.4043,"MEAN_ANOMALY":39.5777,"EPHEMERIS_TYPE":0,"CLASSIFICATION_TYPE":"U","NORAD_CAT_ID":68369,"ELEMENT_SET_NO":999,"REV_AT_EPOCH":463,"BSTAR":0.00035969,"MEAN_MOTION_DOT":0.00122038,"MEAN_MOTION_DDOT":4.2411e-6},{"OBJECT_NAME":"RASSVET-3 11","OBJECT_ID":"2026-061L","EPOCH":"2026-04-21T20:41:50.214336","MEAN_MOTION":15.92190002,"ECCENTRICITY":0.0019648,"INCLINATION":82.2976,"RA_OF_ASC_NODE":75.6625,"ARG_OF_PERICENTER":320.274,"MEAN_ANOMALY":39.7093,"EPHEMERIS_TYPE":0,"CLASSIFICATION_TYPE":"U","NORAD_CAT_ID":68370,"ELEMENT_SET_NO":999,"REV_AT_EPOCH":463,"BSTAR":0.00035414,"MEAN_MOTION_DOT":0.00120175,"MEAN_MOTION_DDOT":4.0775e-6},{"OBJECT_NAME":"RASSVET-3 12","OBJECT_ID":"2026-061M","EPOCH":"2026-04-21T16:05:35.932128","MEAN_MOTION":15.9248491,"ECCENTRICITY":0.0019634,"INCLINATION":82.297,"RA_OF_ASC_NODE":75.8714,"ARG_OF_PERICENTER":321.8983,"MEAN_ANOMALY":38.09,"EPHEMERIS_TYPE":0,"CLASSIFICATION_TYPE":"U","NORAD_CAT_ID":68371,"ELEMENT_SET_NO":999,"REV_AT_EPOCH":460,"BSTAR":0.00034518,"MEAN_MOTION_DOT":0.00118949,"MEAN_MOTION_DDOT":3.988e-6},{"OBJECT_NAME":"RASSVET-3 13","OBJECT_ID":"2026-061N","EPOCH":"2026-04-21T20:44:54.877056","MEAN_MOTION":15.87575555,"ECCENTRICITY":0.0017811,"INCLINATION":82.2969,"RA_OF_ASC_NODE":75.6647,"ARG_OF_PERICENTER":327.4306,"MEAN_ANOMALY":32.5864,"EPHEMERIS_TYPE":0,"CLASSIFICATION_TYPE":"U","NORAD_CAT_ID":68372,"ELEMENT_SET_NO":999,"REV_AT_EPOCH":463,"BSTAR":-0.0049281,"MEAN_MOTION_DOT":-0.01308716,"MEAN_MOTION_DDOT":0.00047289},{"OBJECT_NAME":"RASSVET-3 14","OBJECT_ID":"2026-061P","EPOCH":"2026-04-21T20:35:54.322368","MEAN_MOTION":15.90799205,"ECCENTRICITY":0.0017551,"INCLINATION":82.2962,"RA_OF_ASC_NODE":75.6549,"ARG_OF_PERICENTER":320.1148,"MEAN_ANOMALY":39.8833,"EPHEMERIS_TYPE":0,"CLASSIFICATION_TYPE":"U","NORAD_CAT_ID":68373,"ELEMENT_SET_NO":999,"REV_AT_EPOCH":463,"BSTAR":-0.0011396,"MEAN_MOTION_DOT":-0.00357119,"MEAN_MOTION_DDOT":4.0489e-5},{"OBJECT_NAME":"RASSVET-3 15","OBJECT_ID":"2026-061Q","EPOCH":"2026-04-21T01:03:15.968448","MEAN_MOTION":15.88990281,"ECCENTRICITY":0.00125501,"INCLINATION":82.2942,"RA_OF_ASC_NODE":76.5848,"ARG_OF_PERICENTER":323.7873,"MEAN_ANOMALY":36.2548,"EPHEMERIS_TYPE":0,"CLASSIFICATION_TYPE":"U","NORAD_CAT_ID":68374,"ELEMENT_SET_NO":999,"REV_AT_EPOCH":450,"BSTAR":0.00035852304,"MEAN_MOTION_DOT":0.00102349,"MEAN_MOTION_DDOT":2.506914e-6},{"OBJECT_NAME":"RASSVET-3 16","OBJECT_ID":"2026-061R","EPOCH":"2026-04-21T17:33:08.765280","MEAN_MOTION":15.82414022,"ECCENTRICITY":0.0012819,"INCLINATION":82.2936,"RA_OF_ASC_NODE":75.9542,"ARG_OF_PERICENTER":323.629,"MEAN_ANOMALY":36.4105,"EPHEMERIS_TYPE":0,"CLASSIFICATION_TYPE":"U","NORAD_CAT_ID":68375,"ELEMENT_SET_NO":999,"REV_AT_EPOCH":460,"BSTAR":0.00031209,"MEAN_MOTION_DOT":0.00065235,"MEAN_MOTION_DDOT":0}]
