RASSVET-3 1
1 68360U 26061A   26111.83268521  .00090074  16462-5  33724-3 0  9990
2 68360  82.2954  75.7781 0019305 324.6542  35.3447 15.87452823  4627
RASSVET-3 2
1 68361U 26061B   26111.86497440  .00117177  37681-5  36136-3 0  9998
2 68361  82.2972  75.6660 0020678 322.5958  37.3874 15.91273042  4632
RASSVET-3 3
1 68362U 26061C   26111.86388154  .00117825  38586-5  35214-3 0  9991
2 68362  82.2973  75.6639 0019659 322.1083  37.8805 15.91917201  4633
RASSVET-3 4
1 68363U 26061D   26111.61304022  .00134775  54321-5  39698-3 0  9995
2 68363  82.2980  75.9540 0020413 322.2389  37.7450 15.92177491  4596
RASSVET-3 5
1 68364U 26061E   26111.42377859 -.01832112  91004-3 -59691-2 0  9997
2 68364  82.2970  76.1652 0019741 323.1056  36.8856 15.90474930  4569
RASSVET-3 6
1 68365U 26061F   26111.61050249  .00102326  25982-5  31632-3 0  9994
2 68365  82.2978  75.9473 0020186 324.7092  35.2842 15.91235861  4598
RASSVET-3 7
1 68366U 26061G   26111.23454102  .00120797  40905-5  36828-3 0  9995
2 68366  82.2970  76.3776 0020514 324.6029  35.3880 15.91502763  4531
RASSVET-3 8
1 68367U 26061H   26111.86300703  .00122642  43010-5  35960-3 0  9999
2 68367  82.2974  75.6631 0019914 320.0153  39.9652 15.92278008  4639
RASSVET-3 9
1 68368U 26061J   26111.79995315  .00088194  15087-5  34510-3 0  9997
2 68368  82.2964  75.7311 0015972 326.0935  33.9312 15.86651375  4620
RASSVET-3 10
1 68369U 26061K   26111.86302176  .00122038  42411-5  35969-3 0  9999
2 68369  82.2971  75.6635 0019872 320.4043  39.5777 15.92179546  4638
RASSVET-3 11
1 68370U 26061L   26111.86238674  .00120175  40775-5  35414-3 0  9998
2 68370  82.2976  75.6625 0019648 320.2740  39.7093 15.92190002  4630
RASSVET-3 12
1 68371U 26061M   26111.67055477  .00118949  39880-5  34518-3 0  9991
2 68371  82.2970  75.8714 0019634 321.8983  38.0900 15.92484910  4607
RASSVET-3 13
1 68372U 26061N   26111.86452404 -.01308716  47289-3 -49281-2 0  9992
2 68372  82.2969  75.6647 0017811 327.4306  32.5864 15.87575555  4636
RASSVET-3 14
1 68373U 26061P   26111.85826762 -.00357119  40489-4 -11396-2 0  9996
2 68373  82.2962  75.6549 0017551 320.1148  39.8833 15.90799205  4636
RASSVET-3 15
1 68374U 26061Q   26111.04393482  .00102349  25069-5  35852-3 0  9999
2 68374  82.2942  76.5848 0012550 323.7873  36.2548 15.88990281  4509
RASSVET-3 16
1 68375U 26061R   26111.73135145  .00065235  00000+0  31209-3 0  9992
2 68375  82.2936  75.9542 0012819 323.6290  36.4105 15.82414022  4607
